[{"OBJECT_NAME":"NANOSATC-BR1","OBJECT_ID":"2014-033Q","EPOCH":"2026-03-09T23:35:03.168384","MEAN_MOTION":15.28136801,"ECCENTRICITY":0.00046435,"INCLINATION":98.0845,"RA_OF_ASC_NODE":92.7804,"ARG_OF_PERICENTER":147.6715,"MEAN_ANOMALY":212.4808,"EPHEMERIS_TYPE":0,"CLASSIFICATION_TYPE":"U","NORAD_CAT_ID":40024,"ELEMENT_SET_NO":999,"REV_AT_EPOCH":63881,"BSTAR":0.00074295057,"MEAN_MOTION_DOT":0.00020336,"MEAN_MOTION_DDOT":0},{"OBJECT_NAME":"STARLINK-35501","OBJECT_ID":"2025-259Q","EPOCH":"2026-03-09T13:13:26.061312","MEAN_MOTION":15.27569906,"ECCENTRICITY":0.00040777,"INCLINATION":43.0011,"RA_OF_ASC_NODE":274.8197,"ARG_OF_PERICENTER":295.3418,"MEAN_ANOMALY":64.7011,"EPHEMERIS_TYPE":0,"CLASSIFICATION_TYPE":"U","NORAD_CAT_ID":66436,"ELEMENT_SET_NO":999,"REV_AT_EPOCH":1947,"BSTAR":0.00091587863,"MEAN_MOTION_DOT":0.00025023,"MEAN_MOTION_DDOT":0}]
